[{"OBJECT_NAME":"STARLINK-3578","OBJECT_ID":"2022-022S","EPOCH":"2026-03-09T05:44:13.825824","MEAN_MOTION":15.08839548,"ECCENTRICITY":0.00015104,"INCLINATION":53.2196,"RA_OF_ASC_NODE":11.1471,"ARG_OF_PERICENTER":81.7343,"MEAN_ANOMALY":278.382,"EPHEMERIS_TYPE":0,"CLASSIFICATION_TYPE":"U","NORAD_CAT_ID":51868,"ELEMENT_SET_NO":999,"REV_AT_EPOCH":22304,"BSTAR":2.0512154e-5,"MEAN_MOTION_DOT":3.8e-7,"MEAN_MOTION_DDOT":0},{"OBJECT_NAME":"NANOFF B","OBJECT_ID":"2023-185S","EPOCH":"2026-03-09T23:34:31.291104","MEAN_MOTION":15.11549361,"ECCENTRICITY":0.00109129,"INCLINATION":97.5361,"RA_OF_ASC_NODE":137.8575,"ARG_OF_PERICENTER":288.4201,"MEAN_ANOMALY":71.5842,"EPHEMERIS_TYPE":0,"CLASSIFICATION_TYPE":"U","NORAD_CAT_ID":58755,"ELEMENT_SET_NO":999,"REV_AT_EPOCH":11888,"BSTAR":0.00028764283,"MEAN_MOTION_DOT":4.819e-5,"MEAN_MOTION_DDOT":0}]
